{"type": "FeatureCollection", "features": [ {"type": "Feature", "properties": {"norad_id": 30558, "name": "FENGYUN 1C DEB", "group": "fengyun-1c-debris", "lat": 61.05605235337294, "lon": 123.51703983983185, "alt_km": 1466.6105673187076, "timestamp": "2025-12-27T07:26:25.499057+00:00", "meta": {"OBJECT_NAME": "FENGYUN 1C DEB", "OBJECT_ID": "1999-025AKY", "EPOCH": "2025-12-18T02:35:59.256672", "MEAN_MOTION": 13.28535877, "ECCENTRICITY": 0.04271131, "INCLINATION": 99.4659, "RA_OF_ASC_NODE": 132.6231, "ARG_OF_PERICENTER": 260.3076, "MEAN_ANOMALY": 94.9567, "EPHEMERIS_TYPE": 0, "CLASSIFICATION_TYPE": "U", "NORAD_CAT_ID": 30558, "ELEMENT_SET_NO": 999, "REV_AT_EPOCH": 90829, "BSTAR": 0.0032374201, "MEAN_MOTION_DOT": 2.396e-05, "MEAN_MOTION_DDOT": 0}, "tle": {"line1": "1 30558U 99025AKY 25352.10832473  .00002396  00000+0  32374-2 0  9991", "line2": "2 30558  99.4659 132.6231 0427113 260.3076  94.9567 13.28535877908292"}}, "geometry": {"type": "Point", "coordinates": [123.51703983983185, 61.05605235337294]}}, {"type": "Feature", "properties": {"norad_id": 30560, "name": "FENGYUN 1C DEB", "group": "fengyun-1c-debris", "lat": 44.30645773076126, "lon": -13.880789861602283, "alt_km": 878.43649928167, "timestamp": "2025-12-27T07:26:25.499067+00:00", "meta": {"OBJECT_NAME": "FENGYUN 1C DEB", "OBJECT_ID": "1999-025ALA", "EPOCH": "2025-12-26T23:00:42.363360", "MEAN_MOTION": 14.17041583, "ECCENTRICITY": 0.01155642, "INCLINATION": 98.6645, "RA_OF_ASC_NODE": 354.3365, "ARG_OF_PERICENTER": 170.7845, "MEAN_ANOMALY": 244.7885, "EPHEMERIS_TYPE": 0, "CLASSIFICATION_TYPE": "U", "NORAD_CAT_ID": 30560, "ELEMENT_SET_NO": 999, "REV_AT_EPOCH": 97570, "BSTAR": 0.0002720551, "MEAN_MOTION_DOT": 5.42e-06, "MEAN_MOTION_DDOT": 0}, "tle": {"line1": "1 30560U 99025ALA 25360.95882365  .00000542  00000+0  27206-3 0  9991", "line2": "2 30560  98.6645 354.3365 0115564 170.7845 244.7885 14.17041583975707"}}, "geometry": {"type": "Point", "coordinates": [-13.880789861602283, 44.30645773076126]}}, {"type": "Feature", "properties": {"norad_id": 30561, "name": "FENGYUN 1C DEB", "group": "fengyun-1c-debris", "lat": -24.77218366342784, "lon": 178.96999482880582, "alt_km": 889.545424132607, "timestamp": "2025-12-27T07:26:25.499077+00:00", "meta": {"OBJECT_NAME": "FENGYUN 1C DEB", "OBJECT_ID": "1999-025ALB", "EPOCH": "2025-12-26T17:08:47.213376", "MEAN_MOTION": 14.11288034, "ECCENTRICITY": 0.00607171, "INCLINATION": 98.7248, "RA_OF_ASC_NODE": 2.4549, "ARG_OF_PERICENTER": 74.9531, "MEAN_ANOMALY": 345.2517, "EPHEMERIS_TYPE": 0, "CLASSIFICATION_TYPE": "U", "NORAD_CAT_ID": 30561, "ELEMENT_SET_NO": 999, "REV_AT_EPOCH": 97175, "BSTAR": 0.0003307344, "MEAN_MOTION_DOT": 5.66e-06, "MEAN_MOTION_DDOT": 0}, "tle": {"line1": "1 30561U 99025ALB 25360.71443534  .00000566  00000+0  33073-3 0  9992", "line2": "2 30561  98.7248   2.4549 0060717  74.9531 345.2517 14.11288034971757"}}, "geometry": {"type": "Point", "coordinates": [178.96999482880582, -24.77218366342784]}}, {"type": "Feature", "properties": {"norad_id": 30562, "name": "FENGYUN 1C DEB", "group": "fengyun-1c-debris", "lat": -27.656089676373053, "lon": 73.62513272824363, "alt_km": 834.0563032833752, "timestamp": "2025-12-27T07:26:25.499089+00:00", "meta": {"OBJECT_NAME": "FENGYUN 1C DEB", "OBJECT_ID": "1999-025ALC", "EPOCH": "2025-12-25T17:20:11.726016", "MEAN_MOTION": 14.23142059, "ECCENTRICITY": 0.00600345, "INCLINATION": 98.7626, "RA_OF_ASC_NODE": 67.4091, "ARG_OF_PERICENTER": 227.975, "MEAN_ANOMALY": 253.9513, "EPHEMERIS_TYPE": 0, "CLASSIFICATION_TYPE": "U", "NORAD_CAT_ID": 30562, "ELEMENT_SET_NO": 999, "REV_AT_EPOCH": 97184, "BSTAR": 0.0016660527, "MEAN_MOTION_DOT": 3.79e-05, "MEAN_MOTION_DDOT": 0}, "tle": {"line1": "1 30562U 99025ALC 25359.72235794  .00003790  00000+0  16661-2 0  9994", "line2": "2 30562  98.7626  67.4091 0060034 227.9750 253.9513 14.23142059971846"}}, "geometry": {"type": "Point", "coordinates": [73.62513272824363, -27.656089676373053]}}, {"type": "Feature", "properties": {"norad_id": 30564, "name": "FENGYUN 1C DEB", "group": "fengyun-1c-debris", "lat": 74.21787620769462, "lon": -20.53625107459714, "alt_km": 719.5606268080555, "timestamp": "2025-12-27T07:26:25.499099+00:00", "meta": {"OBJECT_NAME": "FENGYUN 1C DEB", "OBJECT_ID": "1999-025ALE", "EPOCH": "2025-12-26T19:57:07.777728", "MEAN_MOTION": 14.05787345, "ECCENTRICITY": 0.02029059, "INCLINATION": 98.796, "RA_OF_ASC_NODE": 12.2166, "ARG_OF_PERICENTER": 79.423, "MEAN_ANOMALY": 96.3343, "EPHEMERIS_TYPE": 0, "CLASSIFICATION_TYPE": "U", "NORAD_CAT_ID": 30564, "ELEMENT_SET_NO": 999, "REV_AT_EPOCH": 96493, "BSTAR": 0.00056701303, "MEAN_MOTION_DOT": 1.074e-05, "MEAN_MOTION_DDOT": 0}, "tle": {"line1": "1 30564U 99025ALE 25360.83134002  .00001074  00000+0  56701-3 0  9993", "line2": "2 30564  98.7960  12.2166 0202905  79.4230  96.3343 14.05787345964933"}}, "geometry": {"type": "Point", "coordinates": [-20.53625107459714, 74.21787620769462]}}, {"type": "Feature", "properties": {"norad_id": 30565, "name": "FENGYUN 1C DEB", "group": "fengyun-1c-debris", "lat": 80.93585269851457, "lon": 119.43102172580485, "alt_km": 928.1848217425295, "timestamp": "2025-12-27T07:26:25.499109+00:00", "meta": {"OBJECT_NAME": "FENGYUN 1C DEB", "OBJECT_ID": "1999-025ALF", "EPOCH": "2025-12-26T14:06:30.163104", "MEAN_MOTION": 14.10029395, "ECCENTRICITY": 0.0142529, "INCLINATION": 98.4526, "RA_OF_ASC_NODE": 229.9885, "ARG_OF_PERICENTER": 317.025, "MEAN_ANOMALY": 71.3981, "EPHEMERIS_TYPE": 0, "CLASSIFICATION_TYPE": "U", "NORAD_CAT_ID": 30565, "ELEMENT_SET_NO": 999, "REV_AT_EPOCH": 96122, "BSTAR": 0.0019542, "MEAN_MOTION_DOT": 3.75e-05, "MEAN_MOTION_DDOT": 0}, "tle": {"line1": "1 30565U 99025ALF 25360.58784911  .00003750  00000+0  19542-2 0  9990", "line2": "2 30565  98.4526 229.9885 0142529 317.0250  71.3981 14.10029395961222"}}, "geometry": {"type": "Point", "coordinates": [119.43102172580485, 80.93585269851457]}}, {"type": "Feature", "properties": {"norad_id": 30566, "name": "FENGYUN 1C DEB", "group": "fengyun-1c-debris", "lat": 54.93742652187909, "lon": -116.38549321627205, "alt_km": 801.1198148176563, "timestamp": "2025-12-27T07:26:25.499120+00:00", "meta": {"OBJECT_NAME": "FENGYUN 1C DEB", "OBJECT_ID": "1999-025ALG", "EPOCH": "2025-12-26T09:05:12.082848", "MEAN_MOTION": 14.11749536, "ECCENTRICITY": 0.0068327, "INCLINATION": 99.2155, "RA_OF_ASC_NODE": 49.2837, "ARG_OF_PERICENTER": 144.7139, "MEAN_ANOMALY": 288.3673, "EPHEMERIS_TYPE": 0, "CLASSIFICATION_TYPE": "U", "NORAD_CAT_ID": 30566, "ELEMENT_SET_NO": 999, "REV_AT_EPOCH": 96575, "BSTAR": 0.0013467, "MEAN_MOTION_DOT": 2.462e-05, "MEAN_MOTION_DDOT": 0}, "tle": {"line1": "1 30566U 99025ALG 25360.37861207  .00002462  00000+0  13467-2 0  9991", "line2": "2 30566  99.2155  49.2837 0068327 144.7139 288.3673 14.11749536965751"}}, "geometry": {"type": "Point", "coordinates": [-116.38549321627205, 54.93742652187909]}}, {"type": "Feature", "properties": {"norad_id": 30567, "name": "FENGYUN 1C DEB", "group": "fengyun-1c-debris", "lat": -64.4990772650088, "lon": 10.512329297105925, "alt_km": 935.5885959367015, "timestamp": "2025-12-27T07:26:25.499130+00:00", "meta": {"OBJECT_NAME": "FENGYUN 1C DEB", "OBJECT_ID": "1999-025ALH", "EPOCH": "2025-12-25T12:02:24.751104", "MEAN_MOTION": 14.08910336, "ECCENTRICITY": 0.0109355, "INCLINATION": 98.7765, "RA_OF_ASC_NODE": 349.8541, "ARG_OF_PERICENTER": 153.2846, "MEAN_ANOMALY": 333.145, "EPHEMERIS_TYPE": 0, "CLASSIFICATION_TYPE": "U", "NORAD_CAT_ID": 30567, "ELEMENT_SET_NO": 999, "REV_AT_EPOCH": 96953, "BSTAR": 0.00032264, "MEAN_MOTION_DOT": 5.47e-06, "MEAN_MOTION_DDOT": 0}, "tle": {"line1": "1 30567U 99025ALH 25359.50167536  .00000547  00000+0  32264-3 0  9998", "line2": "2 30567  98.7765 349.8541 0109355 153.2846 333.1450 14.08910336969537"}}, "geometry": {"type": "Point", "coordinates": [10.512329297105925, -64.4990772650088]}}, {"type": "Feature", "properties": {"norad_id": 30568, "name": "FENGYUN 1C DEB", "group": "fengyun-1c-debris", "lat": 81.03854970844519, "lon": 85.6451399895934, "alt_km": 694.702037065571, "timestamp": "2025-12-27T07:26:25.499140+00:00", "meta": {"OBJECT_NAME": "FENGYUN 1C DEB", "OBJECT_ID": "1999-025ALJ", "EPOCH": "2025-12-26T09:51:41.452416", "MEAN_MOTION": 14.55520448, "ECCENTRICITY": 0.0015719, "INCLINATION": 98.9425, "RA_OF_ASC_NODE": 171.5524, "ARG_OF_PERICENTER": 153.1426, "MEAN_ANOMALY": 267.9316, "EPHEMERIS_TYPE": 0, "CLASSIFICATION_TYPE": "U", "NORAD_CAT_ID": 30568, "ELEMENT_SET_NO": 999, "REV_AT_EPOCH": 97858, "BSTAR": 0.0032449, "MEAN_MOTION_DOT": 0.0001413, "MEAN_MOTION_DDOT": 0}, "tle": {"line1": "1 30568U 99025ALJ 25360.41089644  .00014130  00000+0  32449-2 0  9991", "line2": "2 30568  98.9425 171.5524 0015719 153.1426 267.9316 14.55520448978580"}}, "geometry": {"type": "Point", "coordinates": [85.6451399895934, 81.03854970844519]}}, {"type": "Feature", "properties": {"norad_id": 30569, "name": "FENGYUN 1C DEB", "group": "fengyun-1c-debris", "lat": -5.977836892472871, "lon": 142.33230410874032, "alt_km": 647.794412555375, "timestamp": "2025-12-27T07:26:25.499150+00:00", "meta": {"OBJECT_NAME": "FENGYUN 1C DEB", "OBJECT_ID": "1999-025ALK", "EPOCH": "2025-12-26T21:41:40.571520", "MEAN_MOTION": 14.74285318, "ECCENTRICITY": 0.0005977, "INCLINATION": 98.7372, "RA_OF_ASC_NODE": 140.9721, "ARG_OF_PERICENTER": 33.87, "MEAN_ANOMALY": 326.2886, "EPHEMERIS_TYPE": 0, "CLASSIFICATION_TYPE": "U", "NORAD_CAT_ID": 30569, "ELEMENT_SET_NO": 999, "REV_AT_EPOCH": 98415, "BSTAR": 0.0041240714, "MEAN_MOTION_DOT": 0.00027341, "MEAN_MOTION_DDOT": 0}, "tle": {"line1": "1 30569U 99025ALK 25360.90394180  .00027341  00000+0  41241-2 0  9998", "line2": "2 30569  98.7372 140.9721 0005977  33.8700 326.2886 14.74285318984159"}}, "geometry": {"type": "Point", "coordinates": [142.33230410874032, -5.977836892472871]}}]}